[{"OBJECT_NAME":"STARLINK-30554","OBJECT_ID":"2023-156W","EPOCH":"2026-03-09T13:13:19.079328","MEAN_MOTION":15.30186563,"ECCENTRICITY":0.00010802,"INCLINATION":53.1575,"RA_OF_ASC_NODE":168.6728,"ARG_OF_PERICENTER":101.2565,"MEAN_ANOMALY":258.8557,"EPHEMERIS_TYPE":0,"CLASSIFICATION_TYPE":"U","NORAD_CAT_ID":58048,"ELEMENT_SET_NO":999,"REV_AT_EPOCH":13496,"BSTAR":7.5244718e-5,"MEAN_MOTION_DOT":1.869e-5,"MEAN_MOTION_DDOT":0},{"OBJECT_NAME":"ELECTRON KICK STAGE R\/B","OBJECT_ID":"2022-147B","EPOCH":"2026-03-09T22:28:20.187264","MEAN_MOTION":15.28920172,"ECCENTRICITY":0.00095089,"INCLINATION":97.642,"RA_OF_ASC_NODE":85.1135,"ARG_OF_PERICENTER":110.4683,"MEAN_ANOMALY":249.7578,"EPHEMERIS_TYPE":0,"CLASSIFICATION_TYPE":"U","NORAD_CAT_ID":54228,"ELEMENT_SET_NO":999,"REV_AT_EPOCH":18390,"BSTAR":0.00083201931,"MEAN_MOTION_DOT":0.00023374,"MEAN_MOTION_DDOT":0}]
